IRIDIUM 36              
1 24967U 97056C   24294.46647677  .00001922  00000+0  64067-3 0  9992
2 24967  86.3910 273.6616 0002543  87.2955 272.8533 14.37137256417784
IRIDIUM 39              
1 25042U 97069D   24294.55419443  .00002307  00000+0  60868-3 0  9992
2 25042  86.3885 313.8902 0019272  33.2830 326.9581 14.48487778414268
IRIDIUM 38              
1 25043U 97069E   24294.57244281  .00001527  00000+0  50268-3 0  9997
2 25043  86.3966 333.9937 0003320 125.1955 234.9554 14.37628269411520
IRIDIUM 42              
1 25077U 97077A   24294.56584922  .00001440  00000+0  49040-3 0  9991
2 25077  86.3983 339.8684 0002319 110.1507 249.9939 14.35901633406809
IRIDIUM 44              
1 25078U 97077B   24294.53923652  .00001581  00000+0  49849-3 0  9999
2 25078  86.3941 322.4448 0004107  93.3711 266.7958 14.39747191409213
IRIDIUM 45              
1 25104U 97082A   24294.58239795  .00048178  00000+0  22969-2 0  9994
2 25104  86.3662 163.1079 0145988 140.6774 220.5176 15.09880968415733
IRIDIUM 24              
1 25105U 97082B   24294.19328013  .00001800  00000+0  54728-3 0  9994
2 25105  86.3977 181.9911 0012422 141.5283 218.6805 14.41585241408636
IRIDIUM 51              
1 25262U 98018A   24294.22064558  .00065248  00000+0  24418-2 0  9991
2 25262  86.3960 172.7026 0129551  79.2983 282.2816 15.19457785410340
